OBJECT_NAME,OBJECT_ID,EPOCH,MEAN_MOTION,ECCENTRICITY,INCLINATION,RA_OF_ASC_NODE,ARG_OF_PERICENTER,MEAN_ANOMALY,EPHEMERIS_TYPE,CLASSIFICATION_TYPE,NORAD_CAT_ID,ELEMENT_SET_NO,REV_AT_EPOCH,BSTAR,MEAN_MOTION_DOT,MEAN_MOTION_DDOT
SL-16 R/B,1994-077B,2026-06-09T08:20:41.785440,14.15572918,.00026573,70.9805,159.6557,332.2037,27.8943,0,U,23405,999,62920,-.10795278E-3,-.259E-5,0
ARIANE 40+ R/B,1995-021B,2026-06-09T11:17:46.986144,14.39829123,.00059525,98.4411,230.6569,218.4661,156.2932,0,U,23561,999,63245,.85754678E-4,.226E-5,0
SL-16 R/B,1995-058B,2026-06-09T12:00:39.835584,14.15505194,.00134355,71.0214,347.4979,330.9060,29.1312,0,U,23705,999,58084,.21867619E-4,-.5E-7,0
SL-16 R/B,1996-051B,2026-06-09T12:35:14.551872,14.12443388,.00148059,70.7635,340.8665,348.5471,11.5309,0,U,24298,999,53461,.94053111E-4,.125E-5,0
ORBVIEW 2 (SEASTAR),1997-037A,2026-06-09T08:28:23.561472,14.35549463,.00029535,98.8682,327.1554,132.3538,227.7897,0,U,24883,999,52162,.94248585E-4,.225E-5,0
SL-16 R/B,1998-043G,2026-06-09T12:06:48.461184,14.26067373,.00108959,98.8360,114.5980,106.3790,253.8588,0,U,25400,999,45207,.38542651E-4,.47E-6,0
SL-16 R/B,1998-045B,2026-06-09T12:53:14.353152,14.16204921,.000952,71.0122,348.4188,251.0993,108.9098,0,U,25407,999,44010,.6137793E-5,-.36E-6,0
ISS (ZARYA),1998-067A,2026-06-09T12:19:23.388960,15.49683556,.0006877,51.6332,338.0748,150.8507,209.2867,0,U,25544,999,57056,.13793845E-3,.7341E-4,0
CZ-4B R/B,1999-025C,2026-06-09T08:51:19.534176,14.18282123,.00382385,98.6486,202.4040,81.4937,294.4084,0,U,25732,999,40116,.43733611E-4,.48E-6,0
OKEAN-O,1999-039A,2026-06-09T10:33:18.894528,14.80457985,.00017987,97.9317,219.3263,77.6198,282.5216,0,U,25860,999,44796,.76680713E-4,.534E-5,0
SL-16 R/B,1999-039B,2026-06-09T09:37:49.584576,14.81837427,.00139337,97.9841,219.2863,324.2346,35.7933,0,U,25861,999,45044,.60589328E-4,.425E-5,0
DELTA 2 R/B,1999-041E,2026-06-09T12:44:53.170944,14.12002056,.05009092,51.7661,294.3790,259.3829,95.0330,0,U,25876,999,37600,.15878855E-3,.752E-5,0
HELIOS 1B,1999-064A,2026-06-09T10:41:23.771328,14.87986409,.00024015,98.1622,65.3610,102.1923,257.9562,0,U,25977,999,69890,.15274653E-3,.1343E-4,0
TERRA,1999-068A,2026-06-09T11:50:09.703968,14.61096977,.00010156,97.9459,210.3443,224.6888,242.2888,0,U,25994,999,40848,.7772827E-4,.338E-5,0
SL-16 R/B,2000-006B,2026-06-09T13:49:44.587200,14.15836155,.00151278,71.0031,264.6283,34.9300,325.2812,0,U,26070,999,36156,-.10684909E-3,-.258E-5,0
TITAN 4B R/B,2000-047B,2026-06-09T12:14:16.922976,15.10152417,.00455834,67.9872,142.1823,294.9147,64.7269,0,U,26474,999,40677,.17467113E-3,.2786E-4,0
ENVISAT,2002-009A,2026-06-09T14:57:44.963712,14.39063093,.00013301,98.3831,112.1107,90.2317,87.7528,0,U,27386,999,27239,.40431137E-4,.82E-6,0
IDEFIX & ARIANE 42P R/B,2002-021B,2026-06-09T10:31:41.563200,14.31078527,.00106022,98.5942,98.0058,279.3660,80.6324,0,U,27422,999,25714,.89172675E-4,.191E-5,0
AQUA,2002-022A,2026-06-09T14:32:48.991776,14.62146686,.00014084,98.4273,129.7377,54.0068,65.6699,0,U,27424,999,28216,.1580398E-3,.745E-5,0
CZ-4B R/B,2002-024C,2026-06-09T09:07:30.715968,14.14563239,.00510807,98.8702,213.2507,121.9752,254.3883,0,U,27432,999,24220,.38015801E-4,.3E-6,0
MIDORI II (ADEOS-II),2002-056A,2026-06-09T12:11:21.012576,14.29345465,.00022313,98.7874,119.7026,87.4986,272.6451,0,U,27597,999,22341,.11315478E-3,.243E-5,0
H-2A R/B,2002-056E,2026-06-09T11:38:06.148896,14.33818833,.0068945,98.3309,117.4403,247.8747,223.0025,0,U,27601,999,22726,.77624535E-4,.179E-5,0
CZ-4B R/B,2003-049C,2026-06-09T12:42:45.578016,14.55095101,.00472281,98.6896,159.0714,312.4912,47.2297,0,U,28059,999,19995,.79019143E-4,.294E-5,0
CZ-2C R/B,2004-012C,2026-06-09T02:35:13.195104,15.77442882,.00087575,97.7081,234.8409,319.5397,40.5216,0,U,28222,999,21862,.49559869E-3,.82418E-3,0
SL-16 R/B,2004-021B,2026-06-09T09:11:28.468032,14.14611754,.0007474,71.0020,40.0683,264.0490,95.9781,0,U,28353,999,13580,-.10770022E-3,-.255E-5,0
CZ-4B R/B,2004-035C,2026-06-09T08:27:57.040128,15.30510841,.00308693,97.3375,193.5150,6.3474,353.8152,0,U,28415,999,19392,.23975122E-3,.7098E-4,0
CZ-2C R/B,2004-046B,2026-06-09T11:29:15.554400,14.27024927,.0138171,98.1950,69.7408,243.2180,115.4812,0,U,28480,999,12159,.37908197E-4,.6E-6,0
ARIANE 5 R/B,2004-049H,2026-06-09T10:49:41.745504,14.85438153,.00849369,98.2718,332.4059,54.2640,306.6437,0,U,28499,999,15941,.81725351E-4,.687E-5,0
CZ-2D R/B,2005-024B,2026-06-09T12:04:17.751936,15.68719452,.00046408,97.3494,179.5527,70.4712,289.7050,0,U,28738,999,15413,.45437102E-3,.51864E-3,0
ALOS (DAICHI),2006-002A,2026-06-09T14:28:41.433312,14.70035069,.00017379,98.1320,116.1945,60.6985,299.4394,0,U,28931,999,8698,.17319226E-3,.99E-5,0
